ONEWEB-0363             
1 49289U 21090L   25293.24286342  .00000020  00000+0  18452-4 0  9991
2 49289  87.9206 322.2910 0001603  86.3564 273.7752 13.20773327198632
ONEWEB-0364             
1 49290U 21090M   25293.05346545  .00002269  00000+0  55467-2 0  9996
2 49290  87.9204 322.3543 0001733  91.5370 268.5962 13.20789279199743
ONEWEB-0365             
1 49291U 21090N   25293.22655906  .00000003  00000+0 -24782-4 0  9993
2 49291  87.9266 352.6857 0001932 101.9608 258.1742 13.19724155194776
ONEWEB-0366             
1 49292U 21090P   25293.05592896  .00000112  00000+0  26787-3 0  9999
2 49292  87.9033 337.5571 0001806  95.2063 264.9273 13.14502772196011
ONEWEB-0367             
1 49293U 21090Q   25293.24130658  .00000012  00000+0 -13825-5 0  9996
2 49293  87.9209 322.2879 0002027  98.2517 261.8846 13.20770738198157
ONEWEB-0368             
1 49294U 21090R   25293.13871691 -.00000006  00000+0 -45972-4 0  9995
2 49294  87.9206 322.3428 0001195 112.2147 247.9113 13.20770744199292
ONEWEB-0369             
1 49295U 21090S   25293.14599724  .00000058  00000+0  11319-3 0  9993
2 49295  87.9259 352.7328 0001894 101.7388 258.3958 13.19723786194754
ONEWEB-0370             
1 49296U 21090T   25293.25077797  .00000006  00000+0 -16236-4 0  9995
2 49296  87.9208 322.2940 0002192  91.9049 268.2335 13.20771466198198
